NORAD_CAT_ID,OBJECT_NAME,OBJECT_TYPE,EPOCH,MEAN_MOTION,ECCENTRICITY,INCLINATION,RA_OF_ASC_NODE,ARG_OF_PERICENTER,MEAN_ANOMALY,BSTAR,MEAN_MOTION_DOT,MEAN_MOTION_DDOT,TLE_LINE0,TLE_LINE1,TLE_LINE2,SEMIMAJOR_AXIS,PERIOD,APOGEE,PERIGEE,DECAYED
51755.0,STARLINK-3460,PAYLOAD,2022-05-31 14:00:01,15.23308043,0.000149,53.2173,16.1632,63.8789,128.4654,-0.032363,-0.00725189,0.0,0 STARLINK-3460,1 51755U 22016AT  22151.58334491 -.00725189  00000-0 -32363-1 0  9994,2 51755  53.2173  16.1632 0001490  63.8789 128.4654 15.23308043 16769,6874.0080000000025,94.531,496.897,494.849,0.0
51755.0,STARLINK-3460,PAYLOAD,2022-05-31 21:02:36,15.24264371,0.0002405,53.2178,14.8301,82.1335,277.9937,-0.0085159,-0.00205181,0.0,0 STARLINK-3460,1 51755U 22016AT  22151.87681618 -.00205181  00000-0 -85159-2 0  9999,2 51755  53.2178  14.8301 0002405  82.1335 277.9937 15.24264371 15691,6871.132,94.472,494.65,491.345,0.0
51755.0,STARLINK-3460,PAYLOAD,2022-06-01 20:00:01,15.21393001,0.0001702,53.2174,10.4335,50.7956,155.8961,-0.034053,-0.00721209,0.0,0 STARLINK-3460,1 51755U 22016AT  22152.83334491 -.00721209  00000-0 -34053-1 0  9990,2 51755  53.2174  10.4335 0001702  50.7956 155.8961 15.21393001 16956,6879.775,94.65,502.811,500.469,0.0
51755.0,STARLINK-3460,PAYLOAD,2022-06-02 20:20:38,15.21253493,0.0001450999999999,53.2222,5.8087,67.218,292.8971,-0.0092834,-0.00204559,0.0,0 STARLINK-3460,1 51755U 22016AT  22153.84766752 -.00204559  00000-0 -92834-2 0  9997,2 51755  53.2222   5.8087 0001451  67.2180 292.8971 15.21253493 17106,6880.196,94.659,503.059,501.062,0.0
51755.0,STARLINK-3460,PAYLOAD,2022-06-03 02:39:25,15.20807222,0.0002132,53.2216,4.6076,351.8954,8.2008,-0.0080517,-0.00175849,0.0,0 STARLINK-3460,1 51755U 22016AT  22154.11071097 -.00175849  00000-0 -80517-2 0  9993,2 51755  53.2216   4.6076 0002132 351.8954   8.2008 15.20807222 17140,6881.541,94.687,504.874,501.939,0.0
51755.0,STARLINK-3460,PAYLOAD,2022-06-03 07:23:45,15.20461912,0.0002626,53.2189,3.7074,49.0754,311.047,-0.0097887,-0.00210587,0.0,0 STARLINK-3460,1 51755U 22016AT  22154.30817029 -.00210587  00000-0 -97887-2 0  9994,2 51755  53.2189   3.7074 0002626  49.0754 311.0470 15.20461912 17172,6882.583000000001,94.708,506.256,502.641,0.0
51755.0,STARLINK-3460,PAYLOAD,2022-06-03 18:26:54,15.19895825,7.36e-05,53.2158,1.6055,78.4069,281.7011,-0.0090767,-0.00192531,0.0,0 STARLINK-3460,1 51755U 22016AT  22154.76868609 -.00192531  00000-0 -90767-2 0  9992,2 51755  53.2158   1.6055 0000736  78.4069 281.7011 15.19895825 17243,6884.292,94.743,506.664,505.65,0.0
51755.0,STARLINK-3460,PAYLOAD,2022-06-04 03:55:55,15.19101241,0.0002386,53.2159,359.8078,39.4757,320.6413,-0.0098762,-0.00204382,0.0,0 STARLINK-3460,1 51755U 22016AT  22155.16383374 -.00204382  00000-0 -98762-2 0  9999,2 51755  53.2159 359.8078 0002386  39.4757 320.6413 15.19101241 17309,6886.693,94.793,510.201,506.914,0.0
51755.0,STARLINK-3460,PAYLOAD,2022-06-04 07:05:33,15.18965447,0.0002889,53.2159,359.208,58.202,301.9258,-0.010344,-0.00212972,0.0,0 STARLINK-3460,1 51755U 22016AT  22155.29552257 -.00212972  00000-0 -10344-1 0  9994,2 51755  53.2159 359.2080 0002889  58.2020 301.9258 15.18965447 17322,6887.103,94.801,510.958,506.978,0.0
51755.0,STARLINK-3460,PAYLOAD,2022-06-04 13:24:48,15.18669542,8.51e-05,53.2146,358.0080000000001,141.8645,218.2411,-0.010154,-0.00207397,0.0,0 STARLINK-3460,1 51755U 22016AT  22155.55889162 -.00207397  00000-0 -10154-1 0  9995,2 51755  53.2146 358.0080 0000851 141.8645 218.2411 15.18669542 16253,6887.998000000001,94.82,510.449,509.276,0.0
51755.0,STARLINK-3460,PAYLOAD,2022-06-05 22:00:00,15.15146251,0.0001779,53.2174,351.8286,48.6611,168.8435,-0.040805,-0.00721077,0.0,0 STARLINK-3460,1 51755U 22016AT  22156.91667824 -.00721077  00000-0 -40805-1 0  9997,2 51755  53.2174 351.8286 0001779  48.6611 168.8435 15.15146251 17576,6898.672,95.04,521.764,519.309,0.0
51755.0,STARLINK-3460,PAYLOAD,2022-06-06 14:00:01,15.14127348,0.0001717,53.2175,348.8063,48.6408,205.9791,-0.042073,-0.00722188,0.0,0 STARLINK-3460,1 51755U 22016AT  22157.58334491 -.00722188  00000-0 -42073-1 0  9995,2 51755  53.2175 348.8063 0001717  48.6408 205.9791 15.14127348  1309,6901.766,95.104,524.816,522.446,0.0
51755.0,STARLINK-3460,PAYLOAD,2022-06-06 22:00:00,15.13616029,0.0001629,53.2174,347.2994,53.5271,218.7307,-0.042569,-0.00720335,0.0,0 STARLINK-3460,1 51755U 22016AT  22157.91667824 -.00720335  00000-0 -42569-1 0  9993,2 51755  53.2174 347.2994 0001629  53.5271 218.7307 15.13616029 17725,6903.32,95.136,526.31,524.061,0.0
51755.0,STARLINK-3460,PAYLOAD,2022-06-07 14:00:01,15.12597561,0.000167,53.2175,344.2841,46.9224,258.7739,-0.043942,-0.00722396,0.0,0 STARLINK-3460,1 51755U 22016AT  22158.58334491 -.00722396  00000-0 -43942-1 0  9993,2 51755  53.2175 344.2841 0001670  46.9224 258.7739 15.12597561  1302,6906.419,95.2,529.437,527.13,0.0
51755.0,STARLINK-3460,PAYLOAD,2022-06-07 22:00:00,15.1208609,0.0001651,53.2175,342.7808,47.1342,274.3616,-0.044438,-0.00720295,0.0,0 STARLINK-3460,1 51755U 22016AT  22158.91667824 -.00720295  00000-0 -44438-1 0  9996,2 51755  53.2175 342.7808 0001651  47.1342 274.3616 15.12086090 17878,6907.976,95.233,530.982,528.701,0.0
51755.0,STARLINK-3460,PAYLOAD,2022-06-08 14:00:01,15.110678899999998,0.0001611,53.2177,339.7728,46.1617,305.0958,-0.045903,-0.00722978,0.0,0 STARLINK-3460,1 51755U 22016AT  22159.58334491 -.00722978  00000-0 -45903-1 0  9999,2 51755  53.2177 339.7728 0001611  46.1617 305.0958 15.11067890  1305,6911.079000000002,95.297,534.057,531.831,0.0
51755.0,STARLINK-3460,PAYLOAD,2022-06-08 22:00:01,15.10555803,0.0001644,53.2175,338.2729,44.3013,320.9807,-0.04635,-0.0071992,0.0,0 STARLINK-3460,1 51755U 22016AT  22159.91668981 -.00719920  00000-0 -46350-1 0  9990,2 51755  53.2175 338.2729 0001644  44.3013 320.9807 15.10555803 18025,6912.641,95.329,535.6419999999998,533.369,0.0
51755.0,STARLINK-3460,PAYLOAD,2022-06-09 14:00:01,15.09534937,0.0001631,53.2178,335.2723,44.8426,346.4617,-0.047486,-0.00717195,0.0,0 STARLINK-3460,1 51755U 22016AT  22160.58334491 -.00717195  00000-0 -47486-1 0  9994,2 51755  53.2178 335.2723 0001631  44.8426 346.4617 15.09534937  1306,6915.757,95.394,538.75,536.494,0.0
51755.0,STARLINK-3460,PAYLOAD,2022-06-09 22:00:00,15.08887782,0.0001509,53.2175,333.776,56.1291,347.315,-0.0050688,-0.00080165,0.0,0 STARLINK-3460,1 51755U 22016AT  22160.91667824 -.00080165  00000-0 -50688-2 0  9999,2 51755  53.2175 333.7760 0001509  56.1291 347.3150 15.08887782  1307,6917.734,95.435,540.643,538.555,0.0
51755.0,STARLINK-3460,PAYLOAD,2022-06-10 00:00:00,15.08840634,0.0001547,53.2172,333.4016,52.6129,83.7528,-0.00035793,-5.98e-05,0.0,0 STARLINK-3460,1 51755U 22016AT  22161.00001157 -.00005980  00000-0 -35793-3 0  9994,2 51755  53.2172 333.4016 0001547  52.6129  83.7528 15.08840634 18198,6917.878000000002,95.438,540.814,538.673,0.0
51755.0,STARLINK-3460,PAYLOAD,2022-06-10 14:00:01,15.08889073,0.0001686999999999,53.2175,330.7889,54.7808,12.0093,-0.00065879,-0.00010772,0.0,0 STARLINK-3460,1 51755U 22016AT  22161.58334491 -.00010772  00000-0 -65879-3 0  9990,2 51755  53.2175 330.7889 0001687  54.7808  12.0093 15.08889073 18283,6917.73,95.434,540.762,538.428,0.0
51755.0,STARLINK-3460,PAYLOAD,2022-06-10 22:00:00,15.08843275,0.0001728,53.2169,329.2948,48.1083,30.3096,-0.001453,-0.0002334,0.0,0 STARLINK-3460,1 51755U 22016AT  22161.91667824 -.00023340  00000-0 -14530-2 0  9998,2 51755  53.2169 329.2948 0001728  48.1083  30.3096 15.08843275 18339,6917.87,95.437,540.931,538.54,0.0
51755.0,STARLINK-3460,PAYLOAD,2022-06-11 22:00:00,15.08814529,0.0001669,53.2163,324.8055,46.6152,66.561,0.003075,0.00048957,0.0,0 STARLINK-3460,1 51755U 22016AT  22162.91667824  .00048957  00000-0  30750-2 0  9990,2 51755  53.2163 324.8055 0001669  46.6152  66.5610 15.08814529 18486,6917.958000000001,95.439,540.9780000000002,538.669,0.0
51755.0,STARLINK-3460,PAYLOAD,2022-06-12 14:00:01,15.08871438,0.0001541999999999,53.2164,321.8114,51.9248,84.4302,-0.0044071999999999,-0.00069809,0.0,0 STARLINK-3460,1 51755U 22016AT  22163.58334491 -.00069809  00000-0 -44072-2 0  9998,2 51755  53.2164 321.8114 0001542  51.9248  84.4302 15.08871438 18585,6917.784000000002,95.436,540.716,538.5830000000002,0.0
51755.0,STARLINK-3460,PAYLOAD,2022-06-12 22:00:00,15.08811102,0.0001625,53.2161,320.3159,43.1216,104.8436,0.0029959,0.00047677,0.0,0 STARLINK-3460,1 51755U 22016AT  22163.91667824  .00047677  00000-0  29959-2 0  9998,2 51755  53.2161 320.3159 0001625  43.1216 104.8436 15.08811102  1304,6917.969,95.439,540.9580000000002,538.71,0.0
51755.0,STARLINK-3460,PAYLOAD,2022-06-13 06:00:02,15.08822743,0.0001456,53.2163,318.8175,48.5462,111.0741,0.0026039,0.00041377,0.0,0 STARLINK-3460,1 51755U 22016AT  22164.25002315  .00041377  00000-0  26039-2 0  9991,2 51755  53.2163 318.8175 0001456  48.5462 111.0741 15.08822743 18681,6917.933000000001,95.439,540.805,538.7909999999998,0.0
51755.0,STARLINK-3460,PAYLOAD,2022-06-13 14:00:01,15.08876322,0.0001615,53.2166,317.3219,49.8571,121.2889,-0.0027125,-0.00043242,0.0,0 STARLINK-3460,1 51755U 22016AT  22164.58334491 -.00043242  00000-0 -27125-2 0  9992,2 51755  53.2166 317.3219 0001615  49.8571 121.2889 15.08876322  1308,6917.769,95.435,540.752,538.5169999999998,0.0
51755.0,STARLINK-3460,PAYLOAD,2022-06-13 22:00:00,15.08842754,0.0001812,53.2164,315.8263,45.6704,137.1023,-0.00049962,-8.231e-05,0.0,0 STARLINK-3460,1 51755U 22016AT  22164.91667824 -.00008231  00000-0 -49962-3 0  9991,2 51755  53.2164 315.8263 0001812  45.6704 137.1023 15.08842754 18787,6917.871999999999,95.437,540.99,538.4830000000002,0.0
51755.0,STARLINK-3460,PAYLOAD,2022-06-14 14:00:01,15.08847264,0.0001831,53.217,312.8327,52.481,153.4626,-0.00099094,-0.00016028,0.0,0 STARLINK-3460,1 51755U 22016AT  22165.58334491 -.00016028  00000-0 -99094-3 0  9990,2 51755  53.2170 312.8327 0001831  52.4810 153.4626 15.08847264  1308,6917.858,95.437,540.99,538.457,0.0
